CCSDS_OMM_VERS = 2.0
CREATION_DATE  = 
ORIGINATOR     = 

OBJECT_NAME    = SL-16 R/B
OBJECT_ID      = 1993-016B
CENTER_NAME    = EARTH
REF_FRAME      = TEME
TIME_SYSTEM    = UTC
MEAN_ELEMENT_THEORY = SGP/SGP4

EPOCH          = 2025-12-29T10:56:24.412704
MEAN_MOTION    = 14.15294979
ECCENTRICITY   = .0008054
INCLINATION    = 71.0086
RA_OF_ASC_NODE = 2.6939
ARG_OF_PERICENTER = 63.9616
MEAN_ANOMALY   = 296.2335

EPHEMERIS_TYPE = 0
CLASSIFICATION_TYPE = U
NORAD_CAT_ID   = 22566
ELEMENT_SET_NO = 999
REV_AT_EPOCH   = 69223
BSTAR          = .9263E-4
MEAN_MOTION_DOT = .133E-5
MEAN_MOTION_DDOT = 0

CCSDS_OMM_VERS = 2.0
CREATION_DATE  = 
ORIGINATOR     = 

OBJECT_NAME    = COSMOS 2242
OBJECT_ID      = 1993-024A
CENTER_NAME    = EARTH
REF_FRAME      = TEME
TIME_SYSTEM    = UTC
MEAN_ELEMENT_THEORY = SGP/SGP4

EPOCH          = 2025-12-29T08:32:28.698144
MEAN_MOTION    = 14.96181889
ECCENTRICITY   = .0016318
INCLINATION    = 82.5195
RA_OF_ASC_NODE = 333.9619
ARG_OF_PERICENTER = 175.5426
MEAN_ANOMALY   = 184.5944

EPHEMERIS_TYPE = 0
CLASSIFICATION_TYPE = U
NORAD_CAT_ID   = 22626
ELEMENT_SET_NO = 999
REV_AT_EPOCH   = 76987
BSTAR          = .28682E-3
MEAN_MOTION_DOT = .3265E-4
MEAN_MOTION_DDOT = 0

CCSDS_OMM_VERS = 2.0
CREATION_DATE  = 
ORIGINATOR     = 

OBJECT_NAME    = SL-16 R/B
OBJECT_ID      = 1993-059B
CENTER_NAME    = EARTH
REF_FRAME      = TEME
TIME_SYSTEM    = UTC
MEAN_ELEMENT_THEORY = SGP/SGP4

EPOCH          = 2025-12-28T21:29:22.140096
MEAN_MOTION    = 14.17218245
ECCENTRICITY   = .00188019
INCLINATION    = 70.9892
RA_OF_ASC_NODE = 160.4179
ARG_OF_PERICENTER = 312.8931
MEAN_ANOMALY   = 47.0614

EPHEMERIS_TYPE = 0
CLASSIFICATION_TYPE = U
NORAD_CAT_ID   = 22803
ELEMENT_SET_NO = 999
REV_AT_EPOCH   = 66950
BSTAR          = .12944001E-3
MEAN_MOTION_DOT = .214E-5
MEAN_MOTION_DDOT = 0

CCSDS_OMM_VERS = 2.0
CREATION_DATE  = 
ORIGINATOR     = 

OBJECT_NAME    = ARIANE 40 R/B
OBJECT_ID      = 1993-061H
CENTER_NAME    = EARTH
REF_FRAME      = TEME
TIME_SYSTEM    = UTC
MEAN_ELEMENT_THEORY = SGP/SGP4

EPOCH          = 2025-12-29T04:02:58.798176
MEAN_MOTION    = 14.32813165
ECCENTRICITY   = .00116593
INCLINATION    = 98.5055
RA_OF_ASC_NODE = 68.3981
ARG_OF_PERICENTER = 129.9558
MEAN_ANOMALY   = 230.2652

EPHEMERIS_TYPE = 0
CLASSIFICATION_TYPE = U
NORAD_CAT_ID   = 22830
ELEMENT_SET_NO = 999
REV_AT_EPOCH   = 68400
BSTAR          = .16084954E-3
MEAN_MOTION_DOT = .396E-5
MEAN_MOTION_DDOT = 0

CCSDS_OMM_VERS = 2.0
CREATION_DATE  = 
ORIGINATOR     = 

OBJECT_NAME    = COSMOS 2278
OBJECT_ID      = 1994-023A
CENTER_NAME    = EARTH
REF_FRAME      = TEME
TIME_SYSTEM    = UTC
MEAN_ELEMENT_THEORY = SGP/SGP4

EPOCH          = 2025-12-29T07:08:46.780224
MEAN_MOTION    = 14.14350480
ECCENTRICITY   = .0007649
INCLINATION    = 71.0537
RA_OF_ASC_NODE = 322.3675
ARG_OF_PERICENTER = 149.5644
MEAN_ANOMALY   = 210.5924

EPHEMERIS_TYPE = 0
CLASSIFICATION_TYPE = U
NORAD_CAT_ID   = 23087
ELEMENT_SET_NO = 999
REV_AT_EPOCH   = 63485
BSTAR          = .17145E-3
MEAN_MOTION_DOT = .281E-5
MEAN_MOTION_DDOT = 0

CCSDS_OMM_VERS = 2.0
CREATION_DATE  = 
ORIGINATOR     = 

OBJECT_NAME    = SL-16 R/B
OBJECT_ID      = 1994-023B
CENTER_NAME    = EARTH
REF_FRAME      = TEME
TIME_SYSTEM    = UTC
MEAN_ELEMENT_THEORY = SGP/SGP4

EPOCH          = 2025-12-29T00:32:46.749120
MEAN_MOTION    = 14.14998595
ECCENTRICITY   = .00022719
INCLINATION    = 70.9971
RA_OF_ASC_NODE = 219.2918
ARG_OF_PERICENTER = 1.1959
MEAN_ANOMALY   = 358.9169

EPHEMERIS_TYPE = 0
CLASSIFICATION_TYPE = U
NORAD_CAT_ID   = 23088
ELEMENT_SET_NO = 999
REV_AT_EPOCH   = 63609
BSTAR          = -.23133155E-4
MEAN_MOTION_DOT = -.93E-6
MEAN_MOTION_DDOT = 0

CCSDS_OMM_VERS = 2.0
CREATION_DATE  = 
ORIGINATOR     = 

OBJECT_NAME    = SL-16 R/B
OBJECT_ID      = 1994-074B
CENTER_NAME    = EARTH
REF_FRAME      = TEME
TIME_SYSTEM    = UTC
MEAN_ELEMENT_THEORY = SGP/SGP4

EPOCH          = 2025-12-29T02:42:25.216704
MEAN_MOTION    = 14.79309592
ECCENTRICITY   = .00080536
INCLINATION    = 97.7187
RA_OF_ASC_NODE = 31.7653
ARG_OF_PERICENTER = 91.2823
MEAN_ANOMALY   = 336.1877

EPHEMERIS_TYPE = 0
CLASSIFICATION_TYPE = U
NORAD_CAT_ID   = 23343
ELEMENT_SET_NO = 999
REV_AT_EPOCH   = 67681
BSTAR          = .10654086E-3
MEAN_MOTION_DOT = .744E-5
MEAN_MOTION_DDOT = 0

CCSDS_OMM_VERS = 2.0
CREATION_DATE  = 
ORIGINATOR     = 

OBJECT_NAME    = SL-16 R/B
OBJECT_ID      = 1994-077B
CENTER_NAME    = EARTH
REF_FRAME      = TEME
TIME_SYSTEM    = UTC
MEAN_ELEMENT_THEORY = SGP/SGP4

EPOCH          = 2025-12-29T09:14:46.859712
MEAN_MOTION    = 14.15550972
ECCENTRICITY   = .0005039
INCLINATION    = 70.9825
RA_OF_ASC_NODE = 140.3962
ARG_OF_PERICENTER = 271.1261
MEAN_ANOMALY   = 88.9285

EPHEMERIS_TYPE = 0
CLASSIFICATION_TYPE = U
NORAD_CAT_ID   = 23405
ELEMENT_SET_NO = 999
REV_AT_EPOCH   = 60628
BSTAR          = -.94202E-4
MEAN_MOTION_DOT = -.232E-5
MEAN_MOTION_DDOT = 0

CCSDS_OMM_VERS = 2.0
CREATION_DATE  = 
ORIGINATOR     = 

OBJECT_NAME    = ARIANE 40+ R/B
OBJECT_ID      = 1995-021B
CENTER_NAME    = EARTH
REF_FRAME      = TEME
TIME_SYSTEM    = UTC
MEAN_ELEMENT_THEORY = SGP/SGP4

EPOCH          = 2025-12-29T03:10:30.292320
MEAN_MOTION    = 14.39708843
ECCENTRICITY   = .00066007
INCLINATION    = 98.4631
RA_OF_ASC_NODE = 70.5219
ARG_OF_PERICENTER = 3.3350
MEAN_ANOMALY   = 26.4544

EPHEMERIS_TYPE = 0
CLASSIFICATION_TYPE = U
NORAD_CAT_ID   = 23561
ELEMENT_SET_NO = 999
REV_AT_EPOCH   = 60909
BSTAR          = .16276377E-3
MEAN_MOTION_DOT = .466E-5
MEAN_MOTION_DDOT = 0

CCSDS_OMM_VERS = 2.0
CREATION_DATE  = 
ORIGINATOR     = 

OBJECT_NAME    = SL-16 R/B
OBJECT_ID      = 1995-058B
CENTER_NAME    = EARTH
REF_FRAME      = TEME
TIME_SYSTEM    = UTC
MEAN_ELEMENT_THEORY = SGP/SGP4

EPOCH          = 2025-12-29T07:38:06.158112
MEAN_MOTION    = 14.15481690
ECCENTRICITY   = .0014441
INCLINATION    = 71.0218
RA_OF_ASC_NODE = 327.9973
ARG_OF_PERICENTER = 233.0270
MEAN_ANOMALY   = 126.9531

EPHEMERIS_TYPE = 0
CLASSIFICATION_TYPE = U
NORAD_CAT_ID   = 23705
ELEMENT_SET_NO = 999
REV_AT_EPOCH   = 55789
BSTAR          = .66025E-4
MEAN_MOTION_DOT = .81E-6
MEAN_MOTION_DDOT = 0

CCSDS_OMM_VERS = 2.0
CREATION_DATE  = 
ORIGINATOR     = 

OBJECT_NAME    = SL-16 R/B
OBJECT_ID      = 1996-051B
CENTER_NAME    = EARTH
REF_FRAME      = TEME
TIME_SYSTEM    = UTC
MEAN_ELEMENT_THEORY = SGP/SGP4

EPOCH          = 2025-12-29T08:15:46.140192
MEAN_MOTION    = 14.12398218
ECCENTRICITY   = .0019433
INCLINATION    = 70.7597
RA_OF_ASC_NODE = 324.1363
ARG_OF_PERICENTER = 240.9855
MEAN_ANOMALY   = 118.9317

EPHEMERIS_TYPE = 0
CLASSIFICATION_TYPE = U
NORAD_CAT_ID   = 24298
ELEMENT_SET_NO = 999
REV_AT_EPOCH   = 51171
BSTAR          = .41497E-4
MEAN_MOTION_DOT = .27E-6
MEAN_MOTION_DDOT = 0

CCSDS_OMM_VERS = 2.0
CREATION_DATE  = 
ORIGINATOR     = 

OBJECT_NAME    = ORBVIEW 2 (SEASTAR)
OBJECT_ID      = 1997-037A
CENTER_NAME    = EARTH
REF_FRAME      = TEME
TIME_SYSTEM    = UTC
MEAN_ELEMENT_THEORY = SGP/SGP4

EPOCH          = 2025-12-29T08:46:46.200000
MEAN_MOTION    = 14.35430222
ECCENTRICITY   = .0001208
INCLINATION    = 98.8466
RA_OF_ASC_NODE = 160.8598
ARG_OF_PERICENTER = 263.4961
MEAN_ANOMALY   = 96.6086

EPHEMERIS_TYPE = 0
CLASSIFICATION_TYPE = U
NORAD_CAT_ID   = 24883
ELEMENT_SET_NO = 999
REV_AT_EPOCH   = 49838
BSTAR          = .18921E-3
MEAN_MOTION_DOT = .497E-5
MEAN_MOTION_DDOT = 0

