SL-16 R/B               
1 22566U 93016B   25363.45583811  .00000133  00000+0  92630-4 0  9994
2 22566  71.0086   2.6939 0008054  63.9616 296.2335 14.15294979692235
COSMOS 2242             
1 22626U 93024A   25363.35588771  .00003265  00000+0  28682-3 0  9993
2 22626  82.5195 333.9619 0016318 175.5426 184.5944 14.96181889769870
SL-16 R/B               
1 22803U 93059B   25362.89539514  .00000214  00000+0  12944-3 0  9992
2 22803  70.9892 160.4179 0018801 312.8931  47.0614 14.17218245669508
ARIANE 40 R/B           
1 22830U 93061H   25363.16873609  .00000396  00000+0  16085-3 0  9993
2 22830  98.5055  68.3981 0011659 129.9558 230.2652 14.32813165684007
COSMOS 2278             
1 23087U 94023A   25363.29776366  .00000281  00000+0  17145-3 0  9994
2 23087  71.0537 322.3675 0007649 149.5644 210.5924 14.14350480634851
SL-16 R/B               
1 23088U 94023B   25363.02276330 -.00000093  00000+0 -23133-4 0  9990
2 23088  70.9971 219.2918 0002271   1.1959 358.9169 14.14998595636095
SL-16 R/B               
1 23343U 94074B   25363.11279186  .00000744  00000+0  10654-3 0  9996
2 23343  97.7187  31.7653 0008053  91.2823 336.1877 14.79309592676814
SL-16 R/B               
1 23405U 94077B   25363.38526458 -.00000232  00000+0 -94202-4 0  9990
2 23405  70.9825 140.3962 0005039 271.1261  88.9285 14.15550972606280
ARIANE 40+ R/B          
1 23561U 95021B   25363.13229505  .00000466  00000+0  16276-3 0  9990
2 23561  98.4631  70.5219 0006600   3.3350  26.4544 14.39708843609096
SL-16 R/B               
1 23705U 95058B   25363.31812683  .00000081  00000+0  66025-4 0  9996
2 23705  71.0218 327.9973 0014441 233.0270 126.9531 14.15481690557899
SL-16 R/B               
1 24298U 96051B   25363.34428403  .00000027  00000+0  41497-4 0  9990
2 24298  70.7597 324.1363 0019433 240.9855 118.9317 14.12398218511711
ORBVIEW 2 (SEASTAR)     
1 24883U 97037A   25363.36581250  .00000497  00000+0  18921-3 0  9993
2 24883  98.8466 160.8598 0001208 263.4961  96.6086 14.35430222498380
